STARLINK-3643           
1 51992U 22025AN  26068.27124771 -.00000184  00000+0  65517-5 0  9992
2 51992  53.2180  20.9998 0001447  86.0884 274.0274 15.08840189220840
KUIPER-00148            
1 65769U 25217H   26068.27522507  .00015783  00000+0  98730-3 0  9995
2 65769  51.8794  26.5769 0008108 351.8096   8.2745 15.09536529 25078
